ORBCOMM FM103           
1 40091U 14040F   25323.84881085  .00000761  00000+0  19883-3 0  9995
2 40091  47.0066   2.5268 0002671 272.0257  88.0323 14.58477123586828
ORBCOMM FM114           
1 41179U 15081A   25324.20864673  .00000779  00000+0  20247-3 0  9999
2 41179  47.0031 269.7926 0002572 329.4882  30.5854 14.58514090527244
ORBCOMM FM119           
1 41180U 15081B   25323.99814345  .00000623  00000+0  16942-3 0  9992
2 41180  46.9988 180.1416 0000824  19.2708 340.8208 14.58444893528462
ORBCOMM FM105           
1 41181U 15081C   25323.97356431  .00000283  00000+0  12421-3 0  9998
2 41181  47.0003 200.4099 0002214 296.5928  63.4726 14.45376603523282
ORBCOMM FM110           
1 41182U 15081D   25324.19926812  .00001044  00000+0  25860-3 0  9997
2 41182  47.0016 269.3505 0002350 216.9421 143.1303 14.58573039527117
ORBCOMM FM118           
1 41183U 15081E   25324.23324726  .00000894  00000+0  22687-3 0  9995
2 41183  47.0034 269.4773 0002120 163.4155 196.6800 14.58521442527229
ORBCOMM FM112           
1 41184U 15081F   25323.96254931  .00000702  00000+0  18561-3 0  9999
2 41184  46.9972 179.3106 0001536 326.7158  33.3630 14.58591344528402
ORBCOMM FM113           
1 41185U 15081G   25324.28228144  .00000770  00000+0  20012-3 0  9992
2 41185  46.9991 178.1515 0001212 339.6233  20.4604 14.58581855528430
